{"type": "FeatureCollection", "features": [ {"type": "Feature", "properties": {"norad_id": 39019, "name": "PLEIADES 1B", "group": "resource", "lat": -75.55647534747459, "lon": 100.43029109016805, "alt_km": 705.9330244819957, "timestamp": "2025-12-19T22:41:52.036009+00:00", "meta": {"OBJECT_NAME": "PLEIADES 1B", "OBJECT_ID": "2012-068A", "EPOCH": "2025-12-19T18:06:57.392352", "MEAN_MOTION": 14.58559211, "ECCENTRICITY": 0.0001164, "INCLINATION": 98.1793, "RA_OF_ASC_NODE": 66.2963, "ARG_OF_PERICENTER": 84.9771, "MEAN_ANOMALY": 275.1561, "EPHEMERIS_TYPE": 0, "CLASSIFICATION_TYPE": "U", "NORAD_CAT_ID": 39019, "ELEMENT_SET_NO": 999, "REV_AT_EPOCH": 69469, "BSTAR": 9.2981e-05, "MEAN_MOTION_DOT": 3.87e-06, "MEAN_MOTION_DDOT": 0}, "tle": {"line1": "1 39019U 12068A   25353.75483093  .00000387  00000+0  92981-4 0  9996", "line2": "2 39019  98.1793  66.2963 0001164  84.9771 275.1561 14.58559211694693"}}, "geometry": {"type": "Point", "coordinates": [100.43029109016805, -75.55647534747459]}}, {"type": "Feature", "properties": {"norad_id": 39030, "name": "GOKTURK 2", "group": "resource", "lat": -30.492673276443963, "lon": 10.681442129838008, "alt_km": 650.4097915016964, "timestamp": "2025-12-19T22:41:52.036019+00:00", "meta": {"OBJECT_NAME": "GOKTURK 2", "OBJECT_ID": "2012-073A", "EPOCH": "2025-12-19T18:29:24.854784", "MEAN_MOTION": 14.75299493, "ECCENTRICITY": 0.0001236, "INCLINATION": 97.6888, "RA_OF_ASC_NODE": 195.0778, "ARG_OF_PERICENTER": 108.1482, "MEAN_ANOMALY": 251.9863, "EPHEMERIS_TYPE": 0, "CLASSIFICATION_TYPE": "U", "NORAD_CAT_ID": 39030, "ELEMENT_SET_NO": 999, "REV_AT_EPOCH": 69805, "BSTAR": 3.2996e-05, "MEAN_MOTION_DOT": 1.76e-06, "MEAN_MOTION_DDOT": 0}, "tle": {"line1": "1 39030U 12073A   25353.77042656  .00000176  00000+0  32996-4 0  9999", "line2": "2 39030  97.6888 195.0778 0001236 108.1482 251.9863 14.75299493698051"}}, "geometry": {"type": "Point", "coordinates": [10.681442129838008, -30.492673276443963]}}, {"type": "Feature", "properties": {"norad_id": 39084, "name": "LANDSAT 8", "group": "resource", "lat": 53.77075632345491, "lon": 50.55301735112697, "alt_km": 696.8203887036025, "timestamp": "2025-12-19T22:41:52.036029+00:00", "meta": {"OBJECT_NAME": "LANDSAT 8", "OBJECT_ID": "2013-008A", "EPOCH": "2025-12-19T17:30:14.213088", "MEAN_MOTION": 14.57109295, "ECCENTRICITY": 0.0001081, "INCLINATION": 98.2064, "RA_OF_ASC_NODE": 61.6994, "ARG_OF_PERICENTER": 90.1855, "MEAN_ANOMALY": 269.9467, "EPHEMERIS_TYPE": 0, "CLASSIFICATION_TYPE": "U", "NORAD_CAT_ID": 39084, "ELEMENT_SET_NO": 999, "REV_AT_EPOCH": 67176, "BSTAR": 7.4137e-05, "MEAN_MOTION_DOT": 2.89e-06, "MEAN_MOTION_DDOT": 0}, "tle": {"line1": "1 39084U 13008A   25353.72933117  .00000289  00000+0  74137-4 0  9991", "line2": "2 39084  98.2064  61.6994 0001081  90.1855 269.9467 14.57109295671761"}}, "geometry": {"type": "Point", "coordinates": [50.55301735112697, 53.77075632345491]}}, {"type": "Feature", "properties": {"norad_id": 39086, "name": "SARAL", "group": "resource", "lat": 49.56679615137586, "lon": 7.951606145997302, "alt_km": 776.248626871904, "timestamp": "2025-12-19T22:41:52.036039+00:00", "meta": {"OBJECT_NAME": "SARAL", "OBJECT_ID": "2013-009A", "EPOCH": "2025-12-19T18:44:35.177280", "MEAN_MOTION": 14.32759303, "ECCENTRICITY": 0.0002955, "INCLINATION": 98.5502, "RA_OF_ASC_NODE": 177.6194, "ARG_OF_PERICENTER": 95.2625, "MEAN_ANOMALY": 264.8896, "EPHEMERIS_TYPE": 0, "CLASSIFICATION_TYPE": "U", "NORAD_CAT_ID": 39086, "ELEMENT_SET_NO": 999, "REV_AT_EPOCH": 66991, "BSTAR": 4.6766e-05, "MEAN_MOTION_DOT": 8.4e-07, "MEAN_MOTION_DDOT": 0}, "tle": {"line1": "1 39086U 13009A   25353.78096270  .00000084  00000+0  46766-4 0  9990", "line2": "2 39086  98.5502 177.6194 0002955  95.2625 264.8896 14.32759303669913"}}, "geometry": {"type": "Point", "coordinates": [7.951606145997302, 49.56679615137586]}}, {"type": "Feature", "properties": {"norad_id": 39150, "name": "GAOFEN-1", "group": "resource", "lat": -38.835035774892404, "lon": 70.9228942526719, "alt_km": 659.013815289667, "timestamp": "2025-12-19T22:41:52.036049+00:00", "meta": {"OBJECT_NAME": "GAOFEN-1", "OBJECT_ID": "2013-018A", "EPOCH": "2025-12-19T17:59:47.266368", "MEAN_MOTION": 14.76491034, "ECCENTRICITY": 0.0018338, "INCLINATION": 97.9325, "RA_OF_ASC_NODE": 64.2856, "ARG_OF_PERICENTER": 121.7213, "MEAN_ANOMALY": 238.5787, "EPHEMERIS_TYPE": 0, "CLASSIFICATION_TYPE": "U", "NORAD_CAT_ID": 39150, "ELEMENT_SET_NO": 999, "REV_AT_EPOCH": 68176, "BSTAR": 5.6459e-05, "MEAN_MOTION_DOT": 3.43e-06, "MEAN_MOTION_DDOT": 0}, "tle": {"line1": "1 39150U 13018A   25353.74985262  .00000343  00000+0  56459-4 0  9994", "line2": "2 39150  97.9325  64.2856 0018338 121.7213 238.5787 14.76491034681763"}}, "geometry": {"type": "Point", "coordinates": [70.9228942526719, -38.835035774892404]}}, {"type": "Feature", "properties": {"norad_id": 39160, "name": "VNREDSAT 1", "group": "resource", "lat": 79.26713195173492, "lon": 1.5739286107583497, "alt_km": 669.0699528047462, "timestamp": "2025-12-19T22:41:52.036059+00:00", "meta": {"OBJECT_NAME": "VNREDSAT 1", "OBJECT_ID": "2013-021B", "EPOCH": "2025-12-19T17:24:13.123296", "MEAN_MOTION": 14.64932754, "ECCENTRICITY": 0.0001222, "INCLINATION": 97.937, "RA_OF_ASC_NODE": 48.7557, "ARG_OF_PERICENTER": 80.8091, "MEAN_ANOMALY": 279.3251, "EPHEMERIS_TYPE": 0, "CLASSIFICATION_TYPE": "U", "NORAD_CAT_ID": 39160, "ELEMENT_SET_NO": 999, "REV_AT_EPOCH": 67401, "BSTAR": 0.00010655, "MEAN_MOTION_DOT": 5.24e-06, "MEAN_MOTION_DDOT": 0}, "tle": {"line1": "1 39160U 13021B   25353.72515189  .00000524  00000+0  10655-3 0  9992", "line2": "2 39160  97.9370  48.7557 0001222  80.8091 279.3251 14.64932754674017"}}, "geometry": {"type": "Point", "coordinates": [1.5739286107583497, 79.26713195173492]}}, {"type": "Feature", "properties": {"norad_id": 39227, "name": "ARIRANG-5 (KOMPSAT-5)", "group": "resource", "lat": 71.70366823744497, "lon": 22.014227935412702, "alt_km": 545.1725618962037, "timestamp": "2025-12-19T22:41:52.036069+00:00", "meta": {"OBJECT_NAME": "ARIRANG-5 (KOMPSAT-5)", "OBJECT_ID": "2013-042A", "EPOCH": "2025-12-19T19:02:00.157632", "MEAN_MOTION": 15.04537339, "ECCENTRICITY": 0.0003444, "INCLINATION": 97.6152, "RA_OF_ASC_NODE": 177.9957, "ARG_OF_PERICENTER": 38.0548, "MEAN_ANOMALY": 322.0921, "EPHEMERIS_TYPE": 0, "CLASSIFICATION_TYPE": "U", "NORAD_CAT_ID": 39227, "ELEMENT_SET_NO": 999, "REV_AT_EPOCH": 67688, "BSTAR": 0.0001723, "MEAN_MOTION_DOT": 2.354e-05, "MEAN_MOTION_DDOT": 0}, "tle": {"line1": "1 39227U 13042A   25353.79305738  .00002354  00000+0  17230-3 0  9992", "line2": "2 39227  97.6152 177.9957 0003444  38.0548 322.0921 15.04537339676887"}}, "geometry": {"type": "Point", "coordinates": [22.014227935412702, 71.70366823744497]}}, {"type": "Feature", "properties": {"norad_id": 39418, "name": "SKYSAT-A", "group": "resource", "lat": -55.42857856637586, "lon": 54.82170985078633, "alt_km": 539.0640386438927, "timestamp": "2025-12-19T22:41:52.036080+00:00", "meta": {"OBJECT_NAME": "SKYSAT-A", "OBJECT_ID": "2013-066C", "EPOCH": "2025-12-19T02:17:36.318336", "MEAN_MOTION": 15.11647877, "ECCENTRICITY": 0.00211813, "INCLINATION": 97.4101, "RA_OF_ASC_NODE": 43.1111, "ARG_OF_PERICENTER": 213.5251, "MEAN_ANOMALY": 146.464, "EPHEMERIS_TYPE": 0, "CLASSIFICATION_TYPE": "U", "NORAD_CAT_ID": 39418, "ELEMENT_SET_NO": 999, "REV_AT_EPOCH": 66126, "BSTAR": 0.00019515102, "MEAN_MOTION_DOT": 3.271e-05, "MEAN_MOTION_DDOT": 0}, "tle": {"line1": "1 39418U 13066C   25353.09555924  .00003271  00000+0  19515-3 0  9994", "line2": "2 39418  97.4101  43.1111 0021181 213.5251 146.4640 15.11647877661265"}}, "geometry": {"type": "Point", "coordinates": [54.82170985078633, -55.42857856637586]}}, {"type": "Feature", "properties": {"norad_id": 39419, "name": "DUBAISAT-2", "group": "resource", "lat": 1.92640111580727, "lon": -16.120647148510294, "alt_km": 541.2664862853799, "timestamp": "2025-12-19T22:41:52.036090+00:00", "meta": {"OBJECT_NAME": "DUBAISAT-2", "OBJECT_ID": "2013-066D", "EPOCH": "2025-12-19T17:54:46.699776", "MEAN_MOTION": 15.08416116, "ECCENTRICITY": 0.0009951, "INCLINATION": 97.4441, "RA_OF_ASC_NODE": 343.9381, "ARG_OF_PERICENTER": 294.776, "MEAN_ANOMALY": 65.2433, "EPHEMERIS_TYPE": 0, "CLASSIFICATION_TYPE": "U", "NORAD_CAT_ID": 39419, "ELEMENT_SET_NO": 999, "REV_AT_EPOCH": 65932, "BSTAR": 0.00013301, "MEAN_MOTION_DOT": 2.01e-05, "MEAN_MOTION_DDOT": 0}, "tle": {"line1": "1 39419U 13066D   25353.74637384  .00002010  00000+0  13301-3 0  9995", "line2": "2 39419  97.4441 343.9381 0009951 294.7760  65.2433 15.08416116659328"}}, "geometry": {"type": "Point", "coordinates": [-16.120647148510294, 1.92640111580727]}}, {"type": "Feature", "properties": {"norad_id": 39574, "name": "GPM-CORE", "group": "resource", "lat": 14.975918606442784, "lon": -164.26911783887755, "alt_km": 436.60350332513644, "timestamp": "2025-12-19T22:41:52.036100+00:00", "meta": {"OBJECT_NAME": "GPM-CORE", "OBJECT_ID": "2014-009C", "EPOCH": "2025-12-19T16:24:37.475712", "MEAN_MOTION": 15.44565565, "ECCENTRICITY": 0.0009432, "INCLINATION": 64.9719, "RA_OF_ASC_NODE": 189.4279, "ARG_OF_PERICENTER": 247.8488, "MEAN_ANOMALY": 112.1651, "EPHEMERIS_TYPE": 0, "CLASSIFICATION_TYPE": "U", "NORAD_CAT_ID": 39574, "ELEMENT_SET_NO": 999, "REV_AT_EPOCH": 67008, "BSTAR": 0.00012886, "MEAN_MOTION_DOT": 5.774e-05, "MEAN_MOTION_DDOT": 0}, "tle": {"line1": "1 39574U 14009C   25353.68376708  .00005774  00000+0  12886-3 0  9995", "line2": "2 39574  64.9719 189.4279 0009432 247.8488 112.1651 15.44565565670089"}}, "geometry": {"type": "Point", "coordinates": [-164.26911783887755, 14.975918606442784]}}]}